UNKNOWN                 
1 81893U          26065.94526491  .00001186  00000+0  12511-2 0  9995
2 81893 100.0566  58.9339 0021843  53.7594 306.5568 13.76905072615664
UNKNOWN                 
1 81899U          26066.13437177  .00001778  00000+0  42013-2 0  9992
2 81899 102.4115 188.1486 0169846  36.4683 324.7854 13.20466776590123
UNKNOWN                 
1 81921U          26062.08620288  .00001918  00000+0  80283-3 0  9993
2 81921  65.7062 230.7222 0843493  79.7316 289.7632 13.15432327 36356
UNKNOWN                 
1 81946U          26066.43239678  .00000090  00000+0  46517-3 0  9994
2 81946  66.4243 349.7242 0677948 310.5900 161.2817 12.42642894558405
UNKNOWN                 
1 81947U          26046.26945095  .00004726  00000+0  46514-3 0  9998
2 81947  66.0766 348.0426 0369408 102.1486 262.1250 14.53453444640398
UNKNOWN                 
1 81964U          26065.93593980  .00000305  00000+0  27998-3 0  9998
2 81964  66.5847  49.6727 0033488  19.2843 340.9495 13.95856542625795
UNKNOWN                 
1 81969U          26062.42138690  .00012230  00000+0  68831-3 0  9998
2 81969  86.6835 118.3770 0003180 201.5410 158.5696 15.13136350452361
UNKNOWN                 
1 81995U          26063.96248604  .00005163  00000+0  96399-3 0  9991
2 81995  65.7446 268.6872 0516129 256.6593  97.6465 14.04989219615775
UNKNOWN                 
1 82043U          26066.64016229  .00007110  00000+0  19401-2 0  9992
2 82043  97.9378 213.2867 0230432 187.8076 171.9500 14.33064706586008
UNKNOWN                 
1 82051U          26046.47695657  .00006292  00000+0  20421-2 0  9992
2 82051  98.7424 137.9574 0090792  69.8098 291.2824 14.36892613581707
UNKNOWN                 
1 82073U          26066.64264728  .00002729  00000+0  69348-3 0  9991
2 82073  97.7395 139.6736 0205971  28.8551 332.3847 14.39467626587334
UNKNOWN                 
1 82139U          26063.98220889  .00003148  00000+0  15670-2 0  9992
2 82139  99.0127 137.8384 0084510 169.2082 191.0930 14.15880577491758
UNKNOWN                 
1 82162U          26066.26160320  .00004626  00000+0  67779-2 0  9994
2 82162 100.4720   0.6276 0061061  19.9932 340.3576 13.54333345515747
UNKNOWN                 
1 82189U          26065.91641543  .00000313  00000+0  11821-3 0  9992
2 82189  74.0320 253.9619 0015579  63.4192 296.8555 14.35278808644496
UNKNOWN                 
1 82199U          26066.57922326  .00000770  00000+0  65358-3 0  9998
2 82199  82.9683 170.1058 0039236 154.6076 219.3599 13.85887429621441
UNKNOWN                 
1 82205U          26064.26077809  .00005202  00000+0  14257-2 0  9993
2 82205  63.0114  10.9866 0496493 301.5238  53.8211 13.93962198619503
UNKNOWN                 
1 82223U          26066.65612217  .00003022  00000+0  16297-2 0  9990
2 82223  99.3147 320.9230 0068159 106.6350 254.2318 14.12325746460775
UNKNOWN                 
1 82250U          26065.70765963  .00005176  00000+0  26518-2 0  9991
2 82250  98.9077 335.9159 0072098 315.5005  73.2659 14.14547974628508
UNKNOWN                 
1 82272U          26065.95056391  .00000752  00000+0  24811-2 0  9999
2 82272  67.5255  48.2280 0752060  51.9220 314.7220 12.33606487282322
UNKNOWN                 
1 82303U          26065.59976716  .00027413  00000+0  21302-1 0  9990
2 82303  81.9384 290.4214 0036722  50.3316 340.6620 13.91960469526070
UNKNOWN                 
1 82311U          26065.58970662  .00000609  00000+0  91250-3 0  9991
2 82311  99.4238 120.5944 0110467  97.4173 263.9533 13.54665541561673
UNKNOWN                 
1 82363U          26064.84888859  .00001066  00000+0  17808-2 0  9996
2 82363  66.9396  16.0036 0450155 112.2057 252.7375 13.15683187301195
UNKNOWN                 
1 82369U          26065.82984714  .00000662  00000+0  47890-3 0  9994
2 82369  98.8956  83.3544 0084639 106.1725 254.8774 13.98221915568922
UNKNOWN                 
1 82381U          26063.60518628  .00036412  00000+0  42061-2 0  9995
2 82381  98.3927 297.4656 0006719 247.9686 112.0814 14.85459497522941
UNKNOWN                 
1 82402U          26066.59136818  .00007498  00000+0  52857-3 0  9994
2 82402  86.6593 118.9249 0007331 188.3735 171.7379 15.04829281467224
UNKNOWN                 
1 82432U          26066.28724829  .00002673  00000+0  56373-3 0  9995
2 82432  74.0089 179.2804 0056690 321.9408  37.7757 14.58942563495239
UNKNOWN                 
1 82448U          26064.23559243  .00008027  00000+0  56289-3 0  9996
2 82448  85.8761 155.2321 0006960 334.3406  25.7482 15.05034831449449
UNKNOWN                 
1 82453U          26066.32692726  .00000018  00000+0  47130-3 0  9995
2 82453 102.1920  27.6779 0094148  51.0790 309.8621 12.39710322556549
UNKNOWN                 
1 82484U          26066.01599619  .00000195  00000+0  33696-3 0  9990
2 82484  99.3511  88.2924 0044139 341.8068  18.1490 13.55831722602053
UNKNOWN                 
1 82494U          26065.37899569  .00025834  00000+0  26895-2 0  9995
2 82494  74.0040 214.7321 0006250 336.8726  23.2173 14.89724522 97404
UNKNOWN                 
1 82500U          26057.76249812  .00002989  00000+0  13530-2 0  9995
2 82500  70.9650 202.8689 0118063 358.4355   1.6382 14.19147272629736
UNKNOWN                 
1 82524U          26063.87041801  .00003397  00000+0  10677-2 0  9991
2 82524  73.2826  24.1038 0132091 150.3175 241.3054 14.36016945588826
UNKNOWN                 
1 82529U          26066.18838425  .00000372  00000+0  63177-3 0  9993
2 82529  99.7799 151.8941 0238397  35.0928 355.2182 13.41193905601061
UNKNOWN                 
1 82560U          26059.34694031  .00001272  00000+0  10557-2 0  9994
2 82560  99.9959  12.6774 0011177  93.7672  58.5374 13.90885057622650
UNKNOWN                 
1 82597U          26066.05759117  .00001468  00000+0  50521-3 0  9990
2 82597  66.7677 285.9003 0098448 248.7151 110.3417 14.36124034641084
UNKNOWN                 
1 82617U          26064.48604693  .00000846  00000+0  22598-3 0  9998
2 82617  74.0252  88.3089 0038228   9.0275 351.1563 14.49535915648815
UNKNOWN                 
1 82627U          26064.78397318  .00000675  00000+0  17379-2 0  9995
2 82627  82.4776 189.4112 0016249 239.1900 274.5257 13.16435767589752
UNKNOWN                 
1 82642U          26062.54981209  .00003400  00000+0  18738-2 0  9991
2 82642  98.9746 337.5622 0136834  11.2481 349.1694 14.07579066627508
UNKNOWN                 
1 82683U          26064.39955733  .00001934  00000+0  73654-3 0  9993
2 82683  98.1604 132.1227 0211036 153.6569 207.5527 14.20386520474007
UNKNOWN                 
1 82693U          26060.73941356  .00002664  00000+0  30752-2 0  9996
2 82693 100.5288  36.5327 0038683 187.1107 172.9491 13.69982439564577
UNKNOWN                 
1 82698U          26058.13541232  .00001124  00000+0  69448-3 0  9996
2 82698  61.6122 305.8235 0688186 318.1455  36.8822 13.29852878548530
UNKNOWN                 
1 82708U          26064.03704540  .00001147  00000+0  45044-2 0  9997
2 82708 102.1653 280.1665 0060082 116.9498 243.7748 12.90735647534132
UNKNOWN                 
1 82739U          26065.93517255  .00000530  00000+0  46776-3 0  9995
2 82739  99.0941 224.4242 0171409  68.4996  80.5161 13.82972074617746
UNKNOWN                 
1 82741U          26065.62165303  .00002179  00000+0  23675-2 0  9990
2 82741 102.8424 133.0834 0198443  80.4052 281.9439 13.66469058608531
UNKNOWN                 
1 82783U          26064.87258986 -.00000181  00000+0 -54980-3 0  9999
2 82783  90.3437  40.8188 0019767 251.3222 108.5760 13.09081547515233
UNKNOWN                 
1 82798U          26059.48190512  .00001920  00000+0  83774-3 0  9999
2 82798  82.9509 129.4832 0027126 292.8683  82.6977 14.23311743323437
UNKNOWN                 
1 82820U          26066.30576920  .00005198  00000+0  17915-2 0  9999
2 82820  99.7935 243.3406 0049349 134.8784 225.6421 14.35716402637764
UNKNOWN                 
1 82829U          26047.73549546  .00000186  00000+0  62868-2 0  9997
2 82829  65.1038 312.4892 0178136 322.2986  65.4853 11.29162853493534
UNKNOWN                 
1 82854U          26066.09690004  .00002801  00000+0  21774-2 0  9998
2 82854  82.6923 358.4235 0132314  41.5497 319.5630 13.88146941619506
UNKNOWN                 
1 82873U          26064.54645364  .00004810  00000+0  20549-2 0  9997
2 82873  99.9951 335.0825 0040390  51.7372 308.7426 14.25114113633026
UNKNOWN                 
1 82875U          26059.67098798  .00001137  00000+0  30260-3 0  9991
2 82875  98.6848  46.1356 0379432  59.5304 304.2774 14.15279139555491
UNKNOWN                 
1 82893U          26065.77697610  .00011776  00000+0  42720-2 0  9990
2 82893  98.9600 188.6664 0027608 161.2583 198.9623 14.33265410436002
UNKNOWN                 
1 82912U          26066.44901997  .00002309  00000+0  96980-3 0  9993
2 82912  65.8427 338.9473 0771869 230.4964 122.5362 13.28396779590571
UNKNOWN                 
1 82961U          26064.39522590  .00018813  00000+0  26219-1 0  9990
2 82961  99.8287 219.6581 0426273 172.8671 187.8782 13.25951502566651
UNKNOWN                 
1 82965U          26065.69103532  .00001239  00000+0  17184-2 0  9995
2 82965 100.1082 152.9323 0003290 184.7673 175.3435 13.60215145535862
UNKNOWN                 
1 83903U          26066.59420731 -.00000293  00000+0  00000+0 0  9997
2 83903   5.9757 289.8760 0122146 253.7944 304.9177  0.99113353 44506
UNKNOWN                 
1 83934U          26065.80594341 -.00000243  00000+0  00000+0 0  9998
2 83934   5.5945 296.9645 0224256 275.8166 296.6474  1.02664015 46142
UNKNOWN                 
1 84006U          26064.41391279  .00000004  00000+0  00000+0 0  9994
2 84006  22.3795 160.6155 6164632  89.6943 335.9169  2.16232214 86013
UNKNOWN                 
1 84188U          26062.35806059  .00182396  00000+0  92896-1 0  9994
2 84188  64.8752 184.3796 3516471   9.3248 355.8429  8.03354809 47595
